0 CZ-2C DEB
1 36090U 09061C   13281.81430606  .00002309  00000-0  55500-3 0  7010
2 36090 098.2927 341.3712 0092905 195.8986 228.9191 14.51726028206375
0 CZ-2C DEB
1 36090U 09061C   13283.82191382  .00003496  00000-0  83391-3 0  7026
2 36090 098.2926 343.3525 0092883 189.7164 281.1827 14.51743055206661
0 CZ-2C DEB
1 36090U 09061C   13286.15446495  .00003042  00000-0  72669-3 0  7037
2 36090 098.2929 345.6551 0093014 182.6388 231.6939 14.51754692207007
0 CZ-2C DEB
1 36090U 09061C   13288.44184961  .00005398  00000-0  12797-2 0  7040
2 36090 098.2929 347.9131 0093058 175.6626 306.3057 14.51771159207346
0 CZ-2C DEB
1 36090U 09061C   13290.78424331  .00004574  00000-0  10857-2 0  7059
2 36090 098.2921 350.2256 0093142 168.5798 308.5089 14.51789599207670
0 CZ-2C DEB
1 36090U 09061C   13292.84986416  .00003932  00000-0  93460-3 0  7065
2 36090 098.2912 352.2647 0093200 162.3174 304.3392 14.51804262207970
0 CZ-2C DEB
1 36090U 09061C   13295.18574359  .00004698  00000-0  11139-2 0  7077
2 36090 098.2906 354.5701 0093267 155.2438 272.7772 14.51819403208318
